name,address,city,state,zip_code,country,phone,Website,email_primary,contact_person,contact_person_role,latitude,longitude
Anniston Islamic Center,1821 McCall Drive,Anniston,Alabama,36207,United States,256-238-8613,https://annistonic.org/,,Dr. Khurram Fareed,President,,
Homewood Masjid | BIS,1810 25th Court South Homewood,Homewood,Alabama,35209,United States,205-879-4247,https://www.bisweb.org/,bisoffice@bisweb.org,,,,
Huntsville Islamic Center,1645 Sparkman Dr NW Huntsville,Huntsville,Alabama,35816,United States,256-721-1712,https://huntsvilleislamiccenter.org/,board@huntsvilleislamiccenter.org,,,,
American Islamic Center of Mobile,6702 Old Shell Road,Mobile,Alabama,36608,United States,251-366-5000,https://mobilemosque.com/,AICOFMOBILE@gmail.com,,,,
Muslim Center of Montgomery,4340 Court Street,Montgomery,Alabama,36105,United States,334-312-7872,https://www.mcmontgomery.org/,muslimcenterofmontgomery@gmail.com,,,,
Al-Huda Islamic Center,10 Cayuga Vista Drive,Lansing,New York,,United States,607-533-0357,https://alhudaislamiccenter.org/,contactus@alhudaislamiccenter.org,Mahmud Burton,President,,
Islamic Society of Tuscaloosa,!416 Paul W Bryant Drive,Tuscaloosa,Alabama,35401,United States,205-758-3382,https://istuscaloosa.org/,support@istuscalosa.org,,,,
The Islamic Community Of Anchorage Alaska,8005 Spring Street,Anchorage,Alaska,99518,United States,907-248-7333,https://alaskamasjid.org/,alaskamuslimcommunity@yahoo.com,,,,
Islamic Center of the East Valley,425 N Alma School Rd,Chadler,Arizona,85224,United States,480-910-0330,https://icev.org/,info@icevmasjid.org,,,,
Islamic Center of Laveen,5099 W Dobbins Rd #1,Laveen Village,Arizona,85339,United States,602-237-2666,https://www.islamiccenteroflaveen.org/,secretary@iclaveen.net,,,,
Masjid Bilal IBN Rabah,44370 Cesar Chavez Lane,Maricopa,Arizona,85138,United States,480-582-9993,https://masjidbilalaz.org/,masjidbilalaz@gmail.com,,,,
Majid Al-Noor,55 N. Matlock St.,Mesa,Arizona,85203,United States,480-644-0074,https://www.masjid-alnoor.org/,info@masjid-alnoor.org,,,,
Albanian American Islamic Center,5825 St. Charles Road,Berkeley,Arizona,60163,United States,708-544-2609,https://albanianamericanislamiccenter.com/,office@albanianilamciccenter.com,Mr. Ismail Mehmeti,President,,
Arizona Cultural Academy,7810 S 42nd PI,Phoenix,Arizona,85042,United States,602-454-1222,https://www.azacademy.org/,info@azacademy.org,,,,
Islamic Center of North East Valley,12125 East Via Linda,Scottsdale,Arizona,85259,United States,602-456-0199,https://islamcenter.com/,pr@islamcenter.com,,,,
Masjid Omar Bin Khatab,6225 S. Mcclintock Dr.,Tempe,Arizona,85283,United States,480-775-6627,https://masjidomartempe.org/,MasjidOmarTempe@Yahoo.com,,,,
ICC-Islamic Community Center of Tempe,131 E 6th Street Tempe,Tempe,Arizona,85281,United States,480-894-6070,https://tempemosque.com/,office@tempemosque.com,,,,
Muslim Community Center of Tucson,5100 N. Kevy Place,Tucson,Arizona,85704,United States,520-329-8568,https://www.mcctucson.org/,,,,,
Masjid Al-KHaliq,,Clarksville,Arkansas,72830,United States,813-922-8684,https://www.masjidalkhaliq.org/index.html,office@masjidalkhaliq.org,,,,
Muslim Center of Conway,1715 South Boulevard,Conway,Arkansas,,United States,501-339-8744,https://www.the-mcc.org/,info@the-mcc.org,,,,
Islamic Center Of Little Rock,3224 Anna St,Little Rock,Arkansas,72204,United States,501-565-4930,https://theiclr.org/,admin@theiclr.org,,,,
Masjid Ameen Zakariyya,1717 Wright Ave,Little Rock,Arkansas,72203,United States,501-372-1942,https://masjid.us/ar/ar-72203/,masjidamerica@gmail.com,,,,
Islamic Center of Alameda,901 Santa Clara Ave,Alameda,California,94501,United States,510-748-9052,https://icabayarea.org/,info@icabayarea.org,,,,
Quba Masjid,"Quba Masjid Hayes, Golden Crescent",Alameda,California,94501,United States,208-150-9299,https://www.qubamasjid.com/,info@qubamasjid.com,,,,
Salaam Islamic Center,1136 N. Brookhurst St.,Anaheim,California,92801,United States,714-999-2800,https://www.aicpca.org/,info@aicpca.org,,,,
Masjid Al-Ansar,1717 S. Brookhurst Street Anaheim,Anaheim,California,92804,United States,714-535-1100,https://www.wcismasjid.com/,office@wcismasjid.com,,,,
Islamic Center of East Bay,33330 Peace Terrace,Fremont,California,94555,United States,510-429-4732,https://isebfremont.org/,info@iseb.org,,,,
Masjid Al-Fatiha of America,210 N Citrus Ave,Azusa,California,91702,United States,626-815-8679,https://www.masjidalfatiha.org/,masjid.alfatiha@gmail.com,,,,
Masjid Al-Rasool,1206 Erringer Road,Simi Valley,California,93065,United States,805-334--178,https://www.masjid-al-rasool.com/,masjid.rasool@gmail.com,,,,
Fatima Islamic Society,7252 Remmet Ave Suite 101,Canoga Park,California,91303,United States,818-347-8889,https://fatimasociety.org/,,,,,
Islamic Center of Chico,1316 Nord Avenue,Chico,California,95926,United States,530-342-5889,https://www.chicoislamiccenter.org/,milhan@mail.csuchico.edu,,,,
Chino Valley Islamic Center,4711 Chino Ave,Chico,California,91710,United States,909-786-1487,https://cvislamiccenter.org/,info@CVIslamicCenter.org,,,,
Al Rashid Mosque,13070113 Street,Edmonton,California,,United States,780-451-6694,https://alrashidmosque.ca/,info@alrashidmosque.ca,,,,
Dar Ul-Islam Masjid,2449 Buena Vista Avenue,Walnut Creek,California,94597,United States,925-482-0077,https://www.darulislam.org/,operations@darulislam.org,Khaled Saleh,Director of Operations,,
Islamic Center of Corona and Norco,465 Santana Way,Corona,California,92881,United States,951-736-8155,https://coronamuslims.com/,info@coronamuslims.com,,,,
Islamic Educational Center of Orange Country,3194-B Airport Loop Dr.,Costa Mesa,California,92626,United States,714-432-0062,https://iecoc.org/,info@iecoc.org,,,,
Kurdish Community Islamic Center,1357 Broadway,El Cajon,California,92021,United States,619-442-4435,https://masjidashty.com/,masjidashty2010@hotmail.com,,,,
AR-Rahman Islamic Center,"7641 Sierra Ave, Fontana",Fontana,California,92336,United States,909-355-4900,https://arrahmanislamiccenter.com/,email@ArrahmanIslamicCenter.com,,,,
Al-Medina Education Center,5880 Thornton Ave,Newark,California,94560,United States,510-516-7890,https://mec1.org/,info@mec1.org,,,,
Islamic Society of East Bay,33330 Peace Terrace,Fremont,California,94555,United States,510-429-4732,https://isebfremont.org/,info@iseb.org,,,,
Ibrahim Khalilullah Islamic Center,1121 Old Canyon Rd.,Fremont,California,95639,United States,510-651-0122,https://masjidikic.org/,Fareed.Wardak@IKICenter.org,,,,
Islamic Center of Fremont,4039 Irvington Avenue,Fremont,California,94538,United States,510-661-0352,https://icfbayarea.com/,wakilahmed2012@gmail.com,,,,
Badr Islamic Center,7150 N Milburn Ave,Fresno,California,93722,United States,559-297-9535,https://centrebadr.net/,mail@al-quean.com,,,,
Islamic Society of Orange Country,9752 13th Street Garden Grove,,California,92844,United States,714-531-1722,https://www.isocmasjid.org/,info@isocmasjid.org,,,,
Islamic Center of Northridge | Granada Hills Masjid,11439 Encino Ave,Granada Hills,California,91344,United States,818-360-3500,https://goicn.org/,info@goicn.org,,,,
The Islamic Center of Hawthorne,12209 Hawthorne Way,Hawthorne,California,90250,United States,31--973-8000,https://ichla.org/,info@ichla.org,,,,
Hayward Islamic Center,26320 Gading Rd.,Hayward,California,94544,United States,510-963-5578,https://www.masjidmuhajireen.org/,info@masjidmuhajireen.org,,,,
Masjid Muhajireen,185 Folson Ave.,Hayward,California,94544,United States,510-786-0313,https://www.masjidmuhajireen.org/,info@masjidmuhajireen.org,,,,
Fatimiyya Islamic Center,573 Barlett Ave,Hayward,California,,United States,510-244-7780,,FartimiyyaCenter@gmail.com,,,,
Islamic Center of Irvine,2 Truman,Irvine,California,92620,United States,949-786-4264,https://www.icoi.net/,ws@icoi.net,,,,
Islamic Center of North Valley,42554 4th St. E,Lancaster,California,93555,United States,661-726-4749,https://www.islamiccenterofnorthvalley.com/,admin@icnvmosque.com,,,,
Masjid Usman | Center for Religious Tolerance,7126 Westview PI,Lemon Grove,California,91945,United States,619-374-1043,https://masjidusman.org/,info@MasjidUsman.org,,,,
Islamic Center of Livermore,379 A S. Livermore Ave,Livermore,California,94550,United States,925-443-1826,https://iclivermore.org/,info@iclivermore.org,,,,
Lodi Muslim Mosque,210 Poplar St. Lodi,Lodi,California,95240,United States,209-333-9619,,Lodimuslimmosque20@gmail.com,,,,
Islamic Center of Southern California,434 S. Vermont Ave,Los Angeles,California,90020,United States,213-382-9200,https://www.islamiccenter.com/,info@islamiccenter.com,,,,
Islamic Community Center of Redlands,24769 Redlands Blvd Suite A B C,Loma Linda,California,92354,United States,909-915-5920,https://iccredlands.org/,contact@iccredlands.org,,,,
Islamic Center of South Bay,28516 Walnut St.,Lomita,California,90717,United States,310-534-1363,https://masjidalnoor.org/,info@masjidalnoor.org,,,,
Masjid Al-Shareef,2104 Orange Ave,Long Beach,California,90806,United States,562-591-5320,https://maslb.net/,masjidalshareefoflongbeach57@gmail.cm,,,,
Masjid Bilal Islamic Center,4016 S. Central Ave,Los Angeles,California,90011,United States,323-233-7274,https://www.masjidbilalonline.com/index.html,bilalcenter@aol.com,,,,
Salaam Islamic Center,3735 Alton Pkwy,Irvine,California,92606,United States,,,info@salaamic.org,,,,
Masjid Umar Ibn Khattab,1025 Exposition Blvd,Los Angeles,California,90007,United States,213-733-9838,https://omarfoundation.com/,info@omarfoundation.com,,,,
Iranian American Muslim Association,3376 Motor Ave.,Los Angeles,California,90034,United States,310-202-8181,https://iman.org/,INFO@IMAN.ORG,,,,
Masjid Bilal IBN Rabah,696 Mount Zion Rd.,Morrow,Georgia,30236,United States,770-629-2220,https://masjidbilalibnrabaah.com/,info@masjidilalibnrabaah.com,,,,
Madera Islamic Center,16643 Road 26,Madera,California,93638,United States,209-725-8167,https://www.masjidmadera.com/,masjidmadera@gmail.com,,,,
Islamic Center of Milly Valley,62 shell Rd,Mill Valley,California,92941,United States,415-383-0617,https://www.mvmasjid.com/,school@mvmasjid.com info@mvmasjid.com,,,,
El Zahara Islamic Center,,,,,United States,201-670-9090,https://www.elzahra.org/,info@elzahra.org,,,,
Dar Us Salam Masjid,90 Dempsy Rd,Milpitas,California,95050,United States,408-719-9010,https://alhilaal.org/home/,info@alhilaal.org,,,,
Orange Country Islamic Foundation,23581 Madero Dr.,Mission Viejo,California,92691,United States,949-595-0480,https://ocif.org/,admin@ocif.org,,,,
Islamic Center of Modesto,1445 N Carpenter Rd.,Modesto,California,95358,United States,209-576-8149,https://www.icomodesto.org/,imam@icomodesto.org,,,,
Islamic Society of Solano County,P.O. Box 6153,Napa,California,94581,United States,707-294-9521,https://www.solanocountyislamiccenter.com/,Solanocountyislamiccenter@yahoo.com,,,,
Islamic Center of Conejo Valley,2700 Borchard Rd.,Newbury Park,California,91320,United States,805-499-2106,https://iccv.org/,iccvnews@gmail.com,,,,
Madina Islamic Center,12500 Firestone Blvd,Norwalk,California,90650,United States,562-676-7351,https://madinamasjid.org/,aka461@hotmail.com,,,,
Masjid Imam Bukhari,8741 Van Nuys Suite 209,Panorama City,California,91402,United States,818-894-3025,https://imambukharimasjid.org/,talhamajeed@hotmail.com,,,,
Islamic Center of Perris,3895 N. Perris Blvd,Perris,California,92571,United States,951-443-3929,https://www.perrismasjid.com/,IslamicCentorofPerris@gmail.com,,,,
Islamic Center Pittsburg,300 E. 10th St.,Pittsburg,California,94565,United States,925-473-0384,https://www.icp-pgh.org/,fgh@yahoo.com,,,,
Muslim Community Center of East Bay,5724 W. Las Positas Blvd Suite 300,Pleasanton,California,94588,United States,,https://mcceastbay.org/,info@mcceasthbay.org,,,,
Islamic Center of Inland Empire,1555 E. 3rd St.,Pomona,California,91766,United States,909-868-8811,https://ranchomasjid.org,admin@ranchomasjid.org,,,,
Islamic Center of Claremont,3641 N. Garey Ave.,Pomona,California,91767,United States,909-593-1865,https://islamiccenterofclaremont.org/,,,,,
Zainabia Islamic Society,575 N. Towne Ave.,Pomona,California,91767,United States,909-981-5491,https://www.zainabia-la.org/,,,,,
Islamic Center of Redlands,11210 Alabama St.,Redlands,California,92373,United States,909-792-0882,https://iccredlands.org/,contact@iccredlands.org,,,,
Islamic Center of Reseda,18206 Victory Blvd,Reseda,California,91335,United States,818-996-9116,https://islamiccenterofreseda.com/,icreseda1@aol.com,,,,
Maktab Tarighat Oveyssi Shahmaghsoudi,18011 Sherman Way,Reseda,California,91335,United States,800-820-2180,https://mto.org/,info@mto.org,,,,
Masjid Al Noor,1330 Cutting Blvd,Richmond,California,94801,United States,510-283-9966,https://www.masjidalnoorrichmond.com/,,,,,
Masjid Al Rahman,1110 36th st,Richmond,California,94804,United States,510-236-8130,https://masjidalrahman.com/,info@masjidalrahman.com,,,,
Islamic Center of Riverside,1038 W. Linden St.,Riverside,California,92507,United States,951-684-5466,https://www.islamiccenterofriverside.net/,info@risersidemasjid.com,,,,
Islamic Society of San Gabriel Valley,19164 E. Walnut Dr.,Rowland Heights,California,91748,United States,926-964-3596,https://icsgv.com/,info@icsgv.com,,,,
Islamic Center of Sacramento,2011 4th St.,Sacramento,California,95818,United States,916-444-6323,https://www.masjidannur.com/,EducationDirector@masjidannur.com,,,,
Salam Islamic Center,4541 College Oak Dr.,Sacramento,California,95841,United States,916-979-1933,https://salamcenter.org/,OfficeManager@salamcenter.org,,,,
Masjid Ibrahim,3449 Rio Linda Blvd,Sacramento,California,95838,United States,916-925-4651,https://www.masjidibrahim.org/,info@masjidibrahim.com,,,,
Masjid Annur Islamic Center,6990 65th St.,Sacramento,California,95823,United States,916-392-6687,https://www.masjidannur.com/,EducationDirector@masjidannur.com,,,,
Islamic Community of Salinas,333 Capitol St.,Salinas,California,93901,United States,831-422-0900,https://www.icsalinas.org/,imam@icsalinas.org,,,,
Masjid Hamza | Islamic Center of Mira Mesa,9235 Activity Rd. Suite 112,San Diego,California,92129,United States,619-416-6018,https://www.masjidhamzasandiego.com/,masjidhamza9235@gmail.com,,,,
Islamic Education Center of San Diego,8977 Activity Rd. Suite 103,San Diego,California,92126,United States,858-689-8888,,info@iecsd.com,,,,
Muslim Community Center of Greater San Diego,14698 Via Fiesta,San Diego,California,92127,United States,858-756-5100,https://www.mccsandiego.org/,info@mcc-gsd.org,,,,
Islamic Center of San Diego,7050 Eckstorm Ave.,San Diego,California,92111,United States,858-278-5240,https://www.icsd.org/,admin@icsd.org,,,,
Mas-San Diego,,San Diego,California,92126,United States,858-603-9221,https://massandiego.org/,admin@massandiego.org,,,,
Masjid Al Tawheed,9011 Elk Grove Florin Rd.,Elk Grove,California,,United States,916-686-9519,https://www.masjidaltawheed.com/,admin@masjidaltawheed.com,,,,
Muslim Community Center,850 Divisadro St,San Francisco,California,94117,United States,415-583-9397,https://mccbrooklyn.org/,info@mccbrooklyn.org,,,,
Islamic Center South Bay Islamic Association,325 N. Third St.,San Jose,California,95112,United States,408-947-9389,https://sbia.info/,sbia@sbia.info,,,,
Saba Islamic Center,4415 Fortan Ct.,San Jose,California,95134,United States,408-946-5700,https://www.saba-igc.org/,saba@saba-igc.org webmaster@saba-igc.org,,,,
Islamic Community of Bay Area Bosniaks,1445 Fortran Ct.,San Jose,California,95112,United States,408-441-0540,https://icbab.org/,sanjosedzemat2016@gmail.com,,,,
Masjid Al Rasool,552 S. Bascan Ave.,San Jose,California,95128,United States,408-364-0666,https://www.masjid-al-rasool.com/,masjid.rasool@gmail.com,,,,
Central Cost Islamic Center,327 Plaza Dr,Santa Maria,California,93401,United States,805-352-1922,https://ccicmasjid.org/,info@ccicmasjid.org,,,,
South Valley Islamic Community,14770 Columbet Ave.,San Martin,California,95046,United States,408-535-0112,https://svic.org/,svic@svic.org,,,,
Masjid Al Haq,228 N. Ellsworth St.,San Mateo,California,94401,United States,650-678-7893,https://www.masjidulhaqq.com/,masjidulhaqqsanmateo@gmail.com,,,,
San Ramon Valley Islamic Center,2232 B Camino Ramon,San Ramon,California,94583,United States,925-866-7088,https://srvic.org/,webmaster@srvic.org,,,,
Imamia Education Center,2110 E 1St Suite 120,Santa Ana,California,92705,United States,714-524-5580,https://www.imamia.org/,aamithani@yahoo.com,Amir Mithani,Director,,
Muslim Community Association,3003 Scott Blvd,Santa Clara,California,,United States,408-747-7277,https://mcabayarea.org/,info@mcabayarea.org,,,,
Islamic Society of Santa Rosa,545 Mendocino Ave,Santa Rosa,California,95401,United States,707-525-1144,https://islamicsocietysr.org/,info@islamicsociety-sr.org,,,,
West Valley Muslim Associatin,12370 Saratoga Sunnyvale Rd.,Saratoga,California,95070,United States,408-805-4560,https://wvmuslim.org/,info@wvmuslim.org,,,,
Islamic Society of Monterey County,405 Elm Ave,Seaside,California,93955,United States,831-393-4003,https://ismcca.org/,ismc405@gmail.com,,,,
Al Zahra Islamic Center,8152 Seville Ave.,South Gate,California,90280,United States,323-835-0633,https://www.elzahra.org/,info@elzahra.org,,,,
Masjid As Sadiq,2065 E. 8th St.,Stockton,California,95206,United States,209-941-4915,https://masjid.assiddiq.org/,masjid@assiddiq.org,,,,
Stockton Student Mosque,1219 El Monte St.,Stockton,California,95207,United States,209-474-3184,http://www.masjidalemaan.com/,info@masjidalemaan.com,,,,
Masjid Al-Emaan,4212 N. Pershing Ave.,Stockton,California,95207,United States,209-688-2594,https://masjidulemaan.com/,info@masjidulemaan.com,,,,
Islamic Center of Sunnyvale,1260 Persian Dr. Suite A1,Sunnyvale,California,94089,United States,408-274-5514,https://tahausa.org/,admin@tahausa.org,,,,
Islamic Center of Temecula Valley,42188 Rio Nedo Suite A,Temecula,California,92590,United States,951-296-6601,https://icotv.org/,secretary@icotv.org,Br. Bahat Akari,Education Committe Chairperson,,
Tracy Islamic Center,11970 Larch Road,Tracy,California,95304,United States,209-830-6286,https://www.tracyislamiccenter.org/,info@tracyislamiccenter.org,,,,
Islamic Society of Tracy,350 N. Corral Hollow,Tracy,California,95376,United States,209-839-2275,https://www.isotracy.org/,isotracyca@gmail.com,,,,
Jafaria Islamic Society,642 South B St.,Tustin,California,92780,United States,323-560-8002,https://www.jafaria.org/jafaria_site/,INFO@JAFARIA.ORG,,,,
Islamic Center of Vallejo,727 Sonoma Blvd,Vallejo,California,94590,United States,707-558-8229,https://www.islamiccenterofvallejo.org/,,,,,
Masjid Al Ittehad,925 Anza Ave,Vista,California,92084,United States,760-954-9544,https://www.masjidalittehad.com/,info@masjidalittehad.com,,,,
Masjid Al-Furqan,659 Brea Canyon Rd,Walnut,California,91789,United States,909-594-1310,http://markazalfurqaan.org/,info@markazalfurqaan.org,,,,
Masjid Aisha,700 Glide Ave,West Sacramento,California,95691,United States,916-372-9031,https://masjidaisha.com/,info@masjidaisha.com,,,,
Salam Islamic Center,4545 College Oak Dr,Sacramento,California,95841,United States,916-979-1933,https://salamcenter.org/,officemanager@salamcenter.org,,,,
Islamic Center of Boulder,1530 Culver St,Boulder,Colorado,80303,United States,303-444-6345,https://bouldermuslims.com/,,,,,
Masjid Al-Farooq | Islamic Society of Colorado Springs,2125 N. Chestnut,Colorado Springs,Colorado,80907,United States,719-632-3364,https://iscs.info/,iscs.info.contact@gmail.com,,,,
Rocky Mountain Islamic Center,7510 W Mississipi Ave.,Lakewood,Colorado,,United States,720-583-4463,,rmislamiccenter@gmail.com,,,,
An-Nur Masjid | Deven Islamic Society,2124 S. Birch,Denver,Colorado,80222,United States,303-759-1985,,dis.birchstreet@gmail.com,,,,
Masjid abu Bakr | Colorado Muslim Society,2071 S. Parker Rd,Denver,Colorado,80231,United States,303-696-9800,https://coloradomuslimsociety.org/,denvermosque@yahoo.com,,,,
South Denver Islamic Society,7007 S Clinton St.,Greenwood Village,Colorado,80112,United States,720-772-7342,https://www.khadeejah.org/,president@masjidkhadeejah.org,,,,
Masjid Ikhlas | Metropolitan Denver North Islamic Center,1141 Irma Dr.,Northglenn,Colorado,90233,United States,303-920-0252,www.masjidikhlas.org/,office@masjidikhlas.org,,,,
Bosmian Educational And Cultural Center,7280 Irving St B206,Westminister,Colorado,80030,United States,303-283-6004,https://becca-chicago.com/,info@bicc-chicago.com,,,,
Farmington Valley American Muslim Center,"35 Harris Rd,",Avon,Connecticut,6001,United States,860-673-9680,https://www.fvamc.org/,info@fvamc.org,,,,
Islamic Society of Greater Hartford,1781 Wilbur Cross Hwy,Berlin,Connecticut,6037,United States,860-829-6411,https://www.berlinmosque.org/,webmaster@berlinmosque.or,Dr. Fadi Hammami,Co-President,,
BridgePort Islamic Community Center,525 Clinton Ave.,Bridgeport,Connecticut,6605,United States,203-362-2527,https://www.mybicc.org/,info@mybicc.org,,,,
Masjid An-Noor | Bridgeport Islamic Society,1300 Fairfield Ave,Bridgeport,Connecticut,6605,United States,203-579-221,https://masjidan-noor.com/,media.masjidannoor@gmail.com,,,,
Danbury Masjid | Islamic Society of Western Connecticut,388 Main Street,Danbury,Connecticut,6810,United States,203-744-1328,http://danburymasjid.com/,iswcdanburymasjid@gmail.com,,,,
Masjid Al Hedaya | Muslim Society of Greater Danbury,18 Great Plain Rd.,Danbury,Connecticut,6810,United States,203-300-9326,https://hedayacenter.org/,eman.school@gmail.org,,,,
Islamic Center of Connecticut,140 White Rock Dr.,Hartford,Connecticut,6115,United States,860-249-0112,http://icct.org/,"webmaster@icct.org, info@icct.org",,,,
Mosque Baitul Aman,410 Main Street,Meriden,Connecticut,6451,United States,860-670-6402,https://edu.ahmadiyya.us/,Connecticut@mkausa.org,,,,
Masjid Al Taqwa,47 Sait Clair Ave,New Britain,Connecticut,6051,United States,860-223-9131,http://www.altaqwamasjid.com/,masjidaltaqwa@ymail.com,,,,
Islamic Association of Greater Hartford,1781 Berlin Tpke,Berlin,Connecticut,,United States,860-829-6411,https://berlinmosque.org/,berlinmo@berlinmosque.org,,,,
Jafaria Association of Connecticut,1 Meriden,Rockfall,Connecticut,6481,United States,203-468-2961,https://jaoct.org/,jafariacenter@jaoct.org,,,,
Monre Masjid,57 Pepper St,Monroe,Connecticut,6468,United States,981-787-52625,https://www.monroemasjid.org/,monroemasjid@gmail.com,,,,
Islamic Society of Stamford,82 Harbor Dr,Stamford,Connecticut,6902,United States,203-255-4327,https://www.stamfordislamiccenter.com/,info@stamfordislamiccenter.com,,,,
Stamford Islamic Center,10 Outlook St.,Stamford,Connecticut,6902,United States,203-975-2642,https://www.stamfordislamiccenter.com/,info@stamfordislamiccenter.com,,,,
Masjid 'Eesa ibn Maryam | NYC Muslim Center,90-20191st,Hollis,New York,11423,United States,718-776-7291,https://www.masjideesa.org/,info@masjidEesa.org,,,,
United Muslim Masjid,132 Prospect St.,Waterbury,Connecticut,6710,United States,203-756-6365,https://www.ummonline.org/,info@ummonline.org,,,,
Masjid Al-Mostafa,120 Schraffts Dr,Waterbury,Connecticut,6705,United States,203-597-7676,https://www.iasconnect.org/,iascmasjidmustafa@gmail.com Iasconnect@sbcglobal.net,,,,
Albanian American Culture & Islamic Center,106 Columbia Blvd,Waterbury,Connecticut,6710,United States,203-755-0687,https://albanianamericanislamiccenter.com/,office@albanianilamiccenter.com,,,,
New Haven Islamic Center,2 Prudden St.,West Haven,Connecticut,6516,United States,203-937-5799,https://www.nhicct.org/,info@nhicct.org,,,,
Islamic Society of Central Delaware,7953 S. Dupont Hwy,Felton,Delaware,19943,United States,302-382-2977,http://www.isocde.org/,inquiry@isocde.org,,,,
Masjid Ibrahim | Islamic Society of Delaware,28 Salem Church Rd.,Newark,Delaware,19713,United States,302-733-0273,https://isdonline.org/masjid-ibrahim,info@isdonline.org,,,,
Masjid Isa ibn-e-Maryam Foundation,706 S old Baltimore Pile,Newark,Delaware,19702,United States,302-786-5202,https://tarbiyahschool.org/,admin@masjidsa.org,,,,
Masjid Al Kauthar,2102 Northeast Blvd,Wilmington,Delaware,19802,United States,302-571-0532,https://masjidalkauthar.org/,weekendschool@masjidalkauthar.org,,,,
First Hijrah Muslim Community Center,4324 Georgia Ave NW,Washington,DC,20011,United States,703-933-0501,https://firsthijrah.org/,info@firsthijrah.org,,,,
Masjid Ush Shura | Islamic Center of Greater Southest,3109 Martin Luther King Ave. Se,Washington,DC,20032,United States,202-487-1024,https://masjidashshura.org/,masjidashshurava@gmail.com,,,,
Masjid Muhammad,1519 Islamic Way Nw,Washington,DC,20001,United States,202-483-8832,https://thenationsmosque.org/,info@thenationsmosque.com,,,,
Islamic Center of Boca Raton,3100 Nw 5th Ave,Boca Raton,Florida,33431,United States,561-395-7221,https://icbr.org/,masjid@icbr.org,,,,
Alhuda Islamic Center | Florida Islamic Education Center,831 E. Palmetto Park Rd,Boca Raton,Florida,33432,United States,561-361-7033,https://www.alhudaglobalschool.org/,global@alhuda.org,,,,
American Islamic Center of Florida,807 N. Federal Hwy,Boca Raton,Florida,33432,United States,561-900-4330,https://aicfmasjid.com/,aicfmails@gmail.com,,,,
Assalam Center of Boca Raton,1499 Nw 4th Ave,Boca Raton,Florida,33432,United States,561-391-8285,https://assalamcenter.org/,AssalamCenter96@gmail.com,,,,
Bonita Masjid,28181 Pine Haven Way Unit 137,,Florida,,United States,2394448588,https://www.bonitamasjid.com/,info@Bonitamasjid.biz,,,,
Al-Amin Center of Florida,8101 South Military Trail,Boynton Beach,Florida,33436,United States,551-859-2296,https://www.alamincenterflorida.org/,info@alamincenter.cemcastbiz.net,,,,
Islamic Center of Brandon,613 E. Morgan St.,Brandon,Florida,33510,United States,321-243-0693,https://www.brandonmasjid.org/,admin@brandonmasjid.org,,,,
Islamic Center of Clermont,15128 Lost Lake Rd,Clermont,Florida,34711,United States,407-267-8320,https://clermontmasjid.org/,haseebikhan@yahoo.com,,,,
Islamic Center of South Lake County,1208 Bowman St,Clermont,Florida,34711,United States,352-636-4956,https://www.icoslc.com/,imamshady@yahoo.com,Bro. Amzad Raymond Ally,Chairman,,
Nur Ul Islam Masjid | Nur Ul Islam of South Florida,10600 Sw 59th St.,Cooper City,Florida,33328,United States,954-434-3855,https://nurulislam.org/,nurulislamfl@gmail.com,,,,
Islamic Center of Daytona,347 S. Keach St.,Daytona Beach,Florida,32114,United States,386-252-3501,https://ic-db.weebly.com/,info@ic-db.org,,,,
Islamic Society of Cental Florida,1350 Gilpin Ct.,Deltona,Florida,32725,United States,386-860-3501,https://iscf.org/,,,,,
Association of Islamic Charitable projects,2820 Griffin Rd,Fort Lauderdale,Florida,33312,United States,954-986-1373,https://www.aicp.org/,musallaassultan@gmail.com,,,,
Masjid Al Iman of Fort Lauderdale,2542 Franklin Drive,Fort Lauderdale,Florida,33311,United States,954-581-6295,https://masjidaliman.com/,office@masjidaliman.com,,,,
Islamic Center of Broward,8658 Nw 44th St.,Fort Lauderdale,Florida,33351,United States,954-741-4214,http://icbfl.com/,icbflorida@gmail.com,,,,
Islamic Center for Peace,2056 Linhart Ave,Fort Myers,Florida,33901,United States,239-671-1761,https://iscf.org/,madarani@ic-eace.com,,,,
Center for Islam & Cultural Awareness,2371 Crawford St.,Fort Myers,Florida,33901,United States,239-334-8778,https://cicaftmyers.org/,cicaftmyers.fl@gmail.com,,,,
House of the Believesrs - Islamic Center of Fort Pierce,3607 Oleander Ave.,Fort Pierce,Florida,34982,United States,772-465-9200,https://www.icfp-fl.com/,houseofthebelievers@gmail.com,,,,
Islamic Center of Muslim Friends,2181 N. Bridge Plaza,Ft. Pierce,Florida,34950,United States,772-462-0242,https://icgmasjid.org/,info@icgmasjid.org,,,,
Hoda Center,5220 Sw 13th St,Gainesville,Florida,32608,United States,352-377-8080,https://hodacenter.org/,hodacenter@hotmail.com,,,,
Islamic Center of Gainesville,1010 W. University Area,Gainesville,Florida,32601,United States,352-372-1980,https://www.iccgfl.org/,socialcoordinator@iccgfl.org,,,,
Islamic Jaffaria Association,10554 Nw 132Nd St,Hialeah Gardens,Florida,33018,United States,305-557-6835,https://www.ijamiami.org/,events@ijamiami.org taqi@ijamiami.org,,,,
Islamic Movement of Florida,3201 Nw 74th Ave,Hollywood,Florida,33024,United States,954-894-9110,https://www.imof.org/,info@IMOF.org,,,,
Jamaat Ul Muttaqeen,1010 SW 196th Ave,Pembroke Pines,Florida,,United States,954-447-1789,https://mjum.org/,mjum1010@gmail.com,,,,
Masjid Ul Munineen,12850 Sw 268 St.,Homestead,Florida,33032,United States,305-246-5814,https://www.masjidulmumineen.org/,homesteadmasjid@yahoo.com,,,,
Masjid Al-Ansar,9801 Old Baymeadows Rd Bldg 2 Apt 17,Jacksonville,Florida,32256,United States,904-997-9487,https://alansarmosque.sg/,mail@alansar.mosque.sg,,,,
Masjid Al-Salaam,1625 N Pearl St,Jacksonville,Florida,32206,United States,904-646-3462,https://www.bcmaburnaby.org/,burnaby@thebcma.com,,,,
Islamic Center of Ne Florida,2333 St Johns Bluff Rd,Jacksonville,Florida,32211,United States,904-646-0980,https://icnef.org/,info@icnef.org,,,,
Masjid Al Noor,3496 Polynesian Isle Blvd,Kissimmee,Florida,34746,United States,407-879-0807,https://www.masjid-alnoor.org/,info@masjid-alnoor.org,,,,
Masjid Taqwa | Islamic Center of Osceola County,2417 N. Central Ave,Kissimmee,Florida,34741,United States,407-944-4353,https://masjidtaqwa.org/,info@masjidtaqwa.org,,,,
Masjid Assunah,1535 Pleasant Hill Rd,Kissimmee,Florida,34741,United States,407-935-0337,https://masjidassunnah-fl.com/,,,,,
Masjid Al-Bir | Al-Bir Islamic Association,4870 Old Tampa Hwy,Kissimmee,Florida,34758,United States,407-879-0807,https://www.albirr.com/,info@albirr.com,,,,
Masjid Darul Uloom | Islamic Center of Kissimmee,2350 Old Vineland Rd,Kissimmee,Florida,34746,United States,407-390-1100,https://darululoomflorida.org/,imam@darululoomflorida.org,,,,
Leesburg Islamic Center,2201 Montclair St,Leesburg,Florida,34748,United States,352-255-4708,https://loudounislamiccenter.org/,info@loudoumislamiccenter.org,,,,
Islamic Society of Brevard County,550 East Florida Ave,Melbourne,Florida,32901,United States,321-984-4129,https://www.isbcmelbourne.org/,info@isbcmelbourne.org,,,,
Masjid Al-Ansar,5245 Nw 7th Ave,Miami,Florida,33127,United States,305-757-8741,https://alansarmosque.sg/,mail@alansar.mosque.sg,,,,
Nigerian Islamic Society,2410 Nw 93Rd St,Miami,Florida,33147,United States,773-665-2451,https://www.nigeriaislamicassociation.org/,niaexecutiveboard@gmail.com,,,,
American Muslim Association of North America,183 Ne 166th St,Miami,Florida,33162,United States,305-945-0414,https://www.imana.org/,hq@imana.org education@imana.org,,,,
Masjid An-Noor | The Islamic Center of Miami,11699 Sw 147th Ave,Miami,Florida,33196,United States,305-408-0400,https://islamicschoolofmiami.org/,secretary@islamicschoolofmiami.org,,,,
Masjid Miami | Muslim Communitites Association of South Florida,7350 Nw 3Rd St,Miami,Florida,33126,United States,305-261-7622,https://www.miamimuslim.org/,info@miamimuslim.org,,,,
Masjid Al-Hijrah | Caribben-American Islamic Association,6128 Sw 27th St,Miami,Florida,33023,United States,121-766-5454,https://alhijrahtrust.org/,admin@alhijrahtrust.org,,,,
Islamic Center of Naples,2520 Davel Blvd 2Nd. Fl Unit E,Naples,Florida,34104,United States,239-732-7136,https://icnaples.org/,islamic.center.naples@gmail.com,Br. Mohammed Usman,President,,
Islamic Center of New Port Richey,4715 Grand Blvd,New Port Richey,Florida,34652,United States,727-834-9200,https://www.icnpr.org/,askimamicnpr@gmail.com,,,,
Islamic Center of Ocala,1410 NE 14th St,Ocala,Florida,34482,United States,352-671-7817,https://islamiccenterofocala.org/,icoo.contact@gmail.com,,,,
Islamic Center of Orange Park,116 Foxridge,Orange Park,Florida,32055,United States,904-330-4847,https://icopfl.org/,icopfl786@gmail.com,Asad Haque,Vice President,,
Masjid Al-Quddus | Islamic Society of Central Florida,312 S. Paramore Ave,Orlando,Florida,32807,United States,407-273-8363,https://iscf.org/masjid/masijid-al-quddus/,imamkhan@iscf.org,,,,
Jama Masjid | Islamic Center of Orlando,11543 Ruby Lake Rd,Orlando,Florida,32836,United States,407-238-2700,https://www.icorlando.org/,info@icorlando.org,,,,
Masjid Al-Rahim | Islamic Society of Central Florida,4962 Old Winter Garden,Orlando,Florida,32811,United States,407-523-7882,https://iscf.org/,icopfl786@gmail.com,Asad Haque,Vice President,,
Masjid Malik | Islamic Society of central Florida,2018 Rouse Rd,Orlando,Florida,32817,United States,407-277-0133,https://iscf.org/,icopfl786@gmail.com,Asad Haque,Vice President,,
Masjid Al-Rahman | Islamic Society of central Florida,1089 N. Goldenrod Road,Orlando,Florida,32807,United States,407-273-7750,https://iscf.org/,icopfl786@gmail.com mail@iscf.org,Asad Haque,Vice President,,
Masjid Al-Haq | Islamic Society of central Florida,545 W. Central Blvd,Orlando,Florida,32801,United States,407-835-9600,https://iscf.org/,icopfl786@gmail.com mail@iscf.org,Asad Haque,Vice President,,
Masjid Al-Aziz | Islamic Society of central Florida,9501 Satellite Blvd Suite 110,Orlando,Florida,32837,United States,,https://iscf.org/,icopfl786@gmail.com mail@iscf.org,Asad Haque,Vice President,,
Bay County Islamic Society,3312 Token Rd,Panama City,Florida,32405,United States,850-785-8085,https://baycountyislamicsociety.net/,info@baycountyislamicsociety.net imamamr@gmail.com,,,,
Islamic Center of Pinellass Park,7400 62Nd Terrance North,Pinellas Park,Florida,33781,United States,727-520-6615,https://ispc-fl.org/,info@ispc-fl.org,,,,
Islamic Community of Sw Florida,25148 Harborview Rd,Port Charlotte,Florida,33980,United States,941-625-8855,http://www.islamicswfl.com/site/,azharsudedar@gmail.com,,,,
Masjid Al-Salam | Islamic Society of Cental Florida,2917 S. Orlando Dr,Sanford,Florida,32773,United States,,https://iscf.org/masjid/masjid-al-salaam/,icopfl786@gmail.com mail@iscf.org,Asad Haque,Vice President,,
Islamic Society of Sarasota & Bradenton,4350 N. Lockwood Ridge Rd,Sarasota,Florida,34234,United States,941-351-3393,https://issb.net/,info@issb.net,,,,
Masjid Al-Jaber | Islamic Society of Central Florida,5186 Shumacher Rd.,Sebring,Florida,33872,United States,386-860-9663,https://iscf.org/masjid/masjid-al-jabbar/,icopfl786@gmail.com mail@iscf.org,Asad Haque,Vice President,,
Masjid Al-Muminin,2401 6th St. S,St. Petersburg,Florida,33705,United States,727-288-3636,,admin@isspmosque.com,,,,
Islamic Foundation of South Florida,5457 Nw 108th Ave,Sunrise,Florida,33351,United States,954-741-8130,https://ifsf.net/,info@ifsf.net,,,,
Islamic Center of Tallahassee,1020 W pensacola St,Tallahassee,Florida,32304,United States,850-681-9022,https://ictallahassee.org/,tallahassee.islamic.center@gmail.com,,,,
Masjid Al-Furqan | Islamic Community of Tallahassee,3617 Old Bainbridge Rd,Tallahassee,Florida,32303,United States,850-514-0100,https://ictallahassee.org/,tallahassee.islamic.center@gmail.com,,,,
Masjid Al-Qassam | Islamic Community of Tampa,5910 E. 130th Ave,Tampa,Florida,33617,United States,813-985-9433,https://ictampa.org/,hatemfariz5262010@yahoo.com ict@ictampa.com,Sh. Ahmed Sharaf,Imam,,
Mas Youth Center | Muslim American Society,12226 N. 56th St,Tampa,Florida,33617,United States,813-899-2267,https://www.masyc.org/,myc.operations@masnewyork.org,,,,
Islamic Society of Tampa Bay Area,7326 E. Sligh Ave,Tampa,Florida,33610,United States,813-628-0007,https://www.istaba.org/,mainoffice@istaba.org,Sr. Mariam Razak,Hifz Academy,,
Dar-Us Salaam | Islamic Society of New Tampa,15830 Morris Bridge Rd,Thonotosassa,Florida,33592,United States,,https://www.newtampamasjid.org/,info@newtampamasjid.org,,,,
Masjid Al-Mumin | Islamic Society of Central Florida,1011 S Washington (Us 1),Titusville,Florida,32780,United States,321-268-1833,https://iscf.org/masjid/masjid-al-jabbar/,icopfl786@gmail.com mail@iscf.org,Asad Haque,Vice President,,
Muslim Association of Hawaii,1935 Aleo Place,Honolulu,Hawaii,96822,United States,808-947-6263,https://www.hawaiimasjid.com,contact@hawaiimasjid.com,,,,
Islamic Center of Boise,2719 Stewart Ave,Boise,Idaho,83702,United States,208-429-1866,https://boisemuslims.org/,boisemuslims@yahoo.com,,,,
American Muslim Community Organization,1548 E Algonquin Rd,Algonquin,Illinois,60102,United States,847-604-4818,https://www.amco.org/,info@McHenryMuslims.org,,,,
Fox Vally Muslim Community Center,1187 Timberlake Dr,Aurora,Illinois,60506,United States,630-810-7729,http://www.auroramasjid.org/,auroramasjid@gmail.com,,,,
Al-Azhar Islamic Foundation,160 Hawthorne Road,Barrington,Illinois,60010,United States,847-277-9910,https://www.aifcenter.org/,best_box69@hotmail.com secretary@azharamerica.org,,,,
Belleville Mosque & Islamic Education Center,4525 Old Collinsville Rd,Belleville,Illinois,622226,United States,618-222-9055,,bellevile@stislam.org,,,,
Masjid Ibrahim,2407 E Washington St.,Bloomington,Illinois,61704,United States,309-663-2828,https://icmclean.org/,imam@icmclean.org,,,,
Islamic Center of Bloomington-Normal,2911 Gill St. Suite 6,Bloomington,Illinois,61704,United States,309-664-0304,https://www.icob.org/,imam.icob@gmail.com,,,,
Masjid Al-Islam | Muslim Association of Boilingbrook,56 E. North Frontage,Bolingbrook,Illinois,60440,United States,630-972-0701,https://bolingbrookmasjid.com/,info@bolingbrookmasjid.com,,,,
Mosque Foundation of Chicago,7360 W. 93Rd St,Bridgeview,Illinois,60455,United States,708-430-5666,https://mosquefoundation.org/,info@mosquefoundation.org,,,,
Masjid An-Nur | Carbondale Muslim Center,504 S. Wall,Carbondale,Illinois,62901,United States,618-533-6522,https://carbondalemuslimcenter.com/,carbondalemosque@gmail.com,,,,
Muslim Community Center,4380 N Elston Ave,Chicago,Illinois,60641,United States,773-777-7443,https://mccchicago.org/,Counseling@mcchicago.org,,,,
Chicago Islamic Center - CIC,3357 W 63rd St.,Chicago,Illinois,60629,United States,773-436-8083,,chicagomasque@yahoo.com,,,,
Faizan e Madinah Chicago,6305 N. Ridge Blvd,Chicago,Illinois,60626,United States,773-465-7875,https://www.dawateislamiusa.com/,dawateislamichicagousa@gmail.com,,,,
Islamic Center of Chicago | At-Takaful Islamic Society,5933 N. Lincoln Ave,Chicago,Illinois,60659,United States,773-989-9330,https://www.icconline.org/,info@icconline.org,,,,
The Ephraim Bahar Cultural Center,2525 W. 71St St.,Chicago,Illinois,60629,United States,773-476-8825,https://ebaharcenter.com/,baharinfo2525@gmail.com,,,,
Islamic Community Center of Illinois,6435 W. Belmont Ave,Chicago,Illinois,60634,United States,773-637-3755,https://iccicenter.org/,contact@iccicenter.org,,,,
Al-Farooq Mosque,8950 S Stony Island,Chicago,Illinois,60649,United States,773-752-2015,https://www.mafchicago.com/,masjid.alfarooq@yahoo.com,,,,
Masjid-E-Sayed Hashim | Mahdavia Islamic Center of Chicago,7419 N Western Ave,Chicago,Illinois,60645,United States,773-262-6680,https://www.miccusa.org/,mahdaviacenter@gmail.com,,,,
Masjid Al-Muhajireen,3777 W. Columbus Ave,Chicago,Illinois,60652,United States,773-581-1083,https://www.masjidmuhajireen.org/,info@masjidmuhajireen.org,,,,
Islamic Society of Midwest,501 Midway Dr,Mt Prospect,Illinois,60056,United States,201-238-6203,https://www.islamicsom.org/,info@islamicsom.org,,,,
Masom | Midwest Association of Shia Organized Muslims,4353 West Lawrence Ave,Chicago,Illinois,60630,United States,847-507-2171,https://masom.com/,secretary@masom.com,,,,
Masjid At-Tawheed Chicago,8726 S. Halsted St.,Chicago,Illinois,60620,United States,773-487-9368,https://www.masjidattawheedchicag.org/,tawheedislamicenter@gmail.com,,,,
Masjid Abbu Bakar Siddiq R. A,1017 W Roscoe St,Chicago,Illinois,60657,United States,312-281-9551,,,,,,
Dar Al Taqwa,10740 Route 108,Ellicott City,Maryland,21042,United States,410-997-5711,https://taqwa.net/,info@taqwa.net,,,,
Makki Masjid,3418 W. Ainsile St,Chicago,Illinois,60625,United States,773-588-8865,https://makkimasjid.com/,info@makkimasjid.com,,,,
Downtown Islamic Center,231 S State St 4th Fl,Chicago,Illinois,60604,United States,312-939-9095,https://www.dtislamiccenter.org/,info@dic-chicago.org dic231@gmail.com,,,,
Masjid e Ayesha Chicago,2409 B W Devon,Chicago,Illinois,90959,United States,773-691-8218,https://www.turabi.org/home,masjideayesha@turabi.org,,,,
Turkish American Cultural Alliance,3745 N Harlem Ave,Chicago,Illinois,60634,United States,509-695-1487,https://www.tacaonline.org/,taca@tacaonline.org,,,,
ICNA-Chicago,6224 N California Ave,Chicago,Illinois,60659,United States,866-497-9037,https://www.icnachicago.org/,,,,,
Nigerian Islamic Association,932 W Sheridian Rd,Chicago,Illinois,60613,United States,773-665-2451,https://www.nigeriaislamicassociation.org/,niaexecutiveboard@gmail.com,,,,
Islamic Center of Mchenry County,5800 E Crystal Lake,Crystal Lake,Illinois,60014,United States,815-893-6005,https://icmc-us.org/,admin@icmc-us.org,,,,
Masjid Wali Hasan | Islamic Center of Decatur,1635 Huston Dr,Decatur,Illinois,62526,United States,217-877-2863,https://masjidwh.org/,contact@masjidwalihasan.org,,,,
Islamic Community of Center of Des Plains,480 Potter Rd,Des Plains,Illinois,60016,United States,847-824-1100,https://iccofdesplaines.org/,admin@islamiccommunitycenter.com,,,,
Institute of Islamic Education | Masjid Al-Islam,1048 Bluff City Blvd,Elgin,Illinois,60120,United States,847-695-4685,https://www.islamicedu.org/,admissions@islamicedu.org lie.office@islamicedu.org,,,,
Islamic Community Center,345 Heine St,Elgin,Illinois,60123,United States,847-695-3338,https://www.iccelgin.com/,,,,,
Dar-Us-Sunnah Masjid and Comm Center,2045 Brown Ave,Evanston,Illinois,60201,United States,773-554-8254,https://www.darussunnah.org/,zahmed22@sbcglobal.net,,,,
Islamic Education Center | Husaini Association of Greater Chicago,1269 Goodrich Ave,Glendale Heights,Illinois,60139,United States,630-469-5533,https://www.iechusaini.org/,,,,,
Msulim Society,1785 Bloomingdale Rd,Glendale Heights,Illinois,60139,United States,630-653-7872,https://www.muslimsocietyinc.org/,,,,,
Albanian American Islamic Center,5825 W St Charles Rd,Hillsdale,Illinois,60163,United States,708-544-2609,https://albanianamericanislamiccenter.com/,abdulbaseer12@yahoo.com,,,,
Islamic Foundation North,1751 N. O Plaine Rd,Liberryville,Illinois,60048,United States,847-406-3730,https://ifnonline.com/,ifnmasjid@ifnonline.com,,,,
Al-Masjidul-Huq,1620 S Highland Ave,Lombard,Illinois,60148,United States,630-519-4336,https://www.masjidhaqq.org/,masjidhaqq@gmail.com,,,,
Masjid DarusSalam,21W525 North Ave,Lombard,Illinois,60148,United States,630-847-6492,,info@dsfnd.org,,,,
Islamic Center of Macomb,601 Wigwam Hollow,Macomb,Illinois,61455,United States,309-833-3875,https://www.islammacomb.org/,msa@wiu.edu,,,,
Masjid Al-Ihsan | Islamic Center of Quad Cities,6005 34th Ave,Moline,Illinois,61265,United States,309-792-1690,https://icqconline.org/,imamicqc@gmail.com emaanali98@gmail.com,Br. Djima Bello,Chairman,,
Muslim Education Center,8601 Menard Ave,Morton Grove,Illinois,60053,United States,847-470-8801,https://mccchicago.org/,,,,,
Islamic Center of Naperville-Al-Hilal,2844 W Ogden Ave,Naperville,Illinois,60540,United States,630-428-3733,https://islamiccenterofnaperville.org/,,,,,
Islamic Center of Naperville-Al-Hidayah,450 S Olson Dr,Naperville,Illinois,60566,United States,630-355-3733,https://islamiccenterofnaperville.org/,,,,,
Islamic Cultural Center of Greater Chicago,1810 N Pfingsten Rd,Northbrook,Illinois,60062,United States,847-272-0319,https://islamiccenterofnaperville.org/,,,,,
The Prayer Center of Orland Park,16530 104th Ave,Orland Park,Illinois,60467,United States,708-349-6592,https://orlandparkprayercenter.org/,info@op-pc.org,,,,
Islamic Center of Peoria,1716 N. North St,Peoria,Illinois,61605,United States,309-688-4605,https://icpeoria.org/,info@icpeoria.org,,,,
Islamic Foundation of Peoria,823 W Salaam Dr,Peoria,Illinois,61615,United States,309-691-8195,https://ifpeoria.org/,drazizrehman@yahoo.com imam@imammazhar.com,,,,
Al-Aqsa Community Center,17940 S Bronk Rd,Plainfield,Illinois,50586,United States,815-230-0786,https://plainfieldmasjid.com/,info@plainfieldmasjid.com,,,,
Islamic Information Center of America,830 E Old Willow Rd,Prospect Heights,Illinois,60070,United States,847-541-8141,https://www.iica.org/,info@iica.org,,,,
Muslim Community Center of Rockford,5921 Darlene Dr,Rockford,Illinois,61109,United States,815-397-3311,https://magr.org/,info@magr.org,,,,
Islamic Society of Northwest Suburbs,3890 Industrial Ave,Rolling Meadows,Illinois,60008,United States,847-253-6400,https://www.isns.org/,communications@isns.org,,,,
Masjid Al-Huda | Midwest Islamic Center,1081 W. Irving Park Rd,Schaumburg,Illinois,60193,United States,630-529-1786,https://masjidalhuda.org/,info.masjid@masjidalhuda.org,,,,
Islamic Society of Greater Springfield,3000 Stanton St,Springfield,Illinois,62703,United States,217-529-8970,https://isogs.org/,isogs@outlook.com,,,,
Bait Ul Ilm Islamic Center,485 S Bartlett Rd,Streamwood,Illinois,60107,United States,630-669-6343,https://www.baitulilm.org/,mfaezi@baitulilm.org,,,,
Central Illinois Mosque & Islamic Center,106 S. Lincoln Ave,Urbana,Illinois,61801,United States,217-782-6562,https://www.cimic.org/,cimic@cimic.org,,,,
Islamic Foundation,300 W. Highridge,Villa Park,Illinois,60181,United States,630-782-6562,https://www.islamicfoundation.org/,hisham@islamicfoundation.org,,,,
Islamic Center of Western Suburbs,28W774 Army Trail Rd,West Chicago,Illinois,60185,United States,630-402-0805,https://www.icwsmasjid.org/,info@icwsmasjid.org,,,,
Muslim Education Cultural Center of America,720 E Plainfield Rd,Willowsbrook,Illinois,60527,United States,630-241-2000,https://meccacenter.org/,ilmeccacenter@gmail.com,,,,
Al Hira Community Center,140 Commercial St,Wood Dale,Illinois,60191,United States,630-350-7860,http://www.alhiracommunitycenter.org/,,Mohammad Iqbal Chohan,President,,
Islamic Center of Bloomington,1925 E Atwater,Bloomington,Indiana,47401,United States,812-333-1611,https://www.icob.org/,Contact@icob.org,,,,
Islamic Society of Columbus In,1531 13th St,Columbus,Indiana,47201,United States,269-779-7439,https://www.iscindiana.org/,contact@iscindiana.org,,,,
Northwest Indiana Islamic center,9803 Colorado st,Crown Point,Indiana,46307,United States,219-756-7622,https://nwiic.org/,info@nwiic.org,,,,
Al Huda Foundation,12201 Lantern Rd,Fishers,Indiana,46038,United States,317-570-9100,https://alhudafoundation.org/,info@alhudafoundation.org techsupport@alhudafoundation.org,,,,
Gary Muslim Center,1473 W 15th Ave,Gary,Indiana,46407,United States,219-885-3018,http://garymuslimcenter.com/,,,,,
Illiana Islamic Association,9606 Spring St,Highland,Indiana,46322,United States,219-924-2940,https://www.highlandmasjid.org/,info@highlandmasjid.org,,,,
Nur-Allah Islamic Center,2040 E 46th St,Indianapolis,Indiana,46205,United States,317-251-9796,http://nurallah.org/,nur-allah@att.net,,,,
Masjid Al-Fajr,2846 Cold Spring Rd,Indianapolis,Indiana,46222,United States,317-855-9934,https://theimcaonline.org/,info@theimcaonline.org,,,,
Masjid Al-Mumineen,4088 Millersville Rd,Indianapolis,Indiana,46205,United States,317-545-4252,https://www.masjidmumineen.com/,masjidalmumineenindy@gmail.com,,,,
Masjid An-Nur,5250 Lafayette Rd,Indianapolis,Indiana,46254,United States,317-328-7983,https://masjidnoorindy.org/,,,,,
"Muslim Community Center, Indianapolis",4836 Mt Vernon Dr.,Indianapolis,Indiana,46227,United States,317-786-8911,http://www.taqwacenter.com/,mcci4u@gmail.com,,,,
Zainabia Center for Momin,4444 W. 56th St,Indianapolis,Indiana,46254,United States,,https://www.zainabiacenter.org/,12thimamfollower@gmail.com,,,,
Al Haqq FOundation,5554 Georgetown Rd,Indianapolis,Indiana,46254,United States,317-822-8161,http://www.alhaqqfoundation.net/,alhaqqfoundation@yahoo.com,Muhammad Ndiaye,Director,,
Kendallville Masjid | American Moslem Society Indiana,802 N Swyer Rd,Kendallville,Indiana,46755,United States,260-242-1433,,,,,,
Islamic Center of Michigan City,1606 N 500 E,Michigan City,Indiana,46360,United States,219-879-9667,https://islamiccenterofmichigancity.org/,syedshahicmc@tgmail.com,,,,
Islamic Center of Muncie,5141 W Hessler Rd,Muncie,Indiana,47305,United States,765-288-8014,https://icmuncie.weebly.com/,islamiccenterfmuncie@gmail.com,,,,
Islamic Center of Evansville,4200 Grimm Rd,Newburgh,Indiana,47630,United States,812-853-8806,https://www.isevv.org/,zbfarooqui@gmail.com sundayschoolevl@gmail.com,,,,
Islamic Society of North America,Po Box 38,Plainfield,Indiana,46168,United States,,https://isna.net/,info@isna.net,,,,
Masjid Al-Noor | Islamic Society of Michina,3310 Hepler St,South Bend,Indiana,46635,United States,574-272-0569,http://www.michianamuslims.org/,contact@michianamuslims.org,,,,
AL-ILM Weekend School,4950 W 34th Indianapolis,Indianapolis,Indiana,46224,United States,317-672-0488,https://alilmschool.org/,support@alilmschool.org,,,,
Shia Islamic Center of Michigan City,613 Greentree Dr,Trail Creek,Indiana,46360,United States,219-879-9667,https://islamiccenterofmichigancity.org/,syedshahicmc@tgmail.com,,,,
Islamic Society of Greater Lafayette,1022 Frist St.,West Lafayette,Indiana,47906,United States,765-743-8650,https://www.masjidisgl.org/index,admin@masjidisgl.org,,,,
Masjid Darul Arqum | Islamic Community of Quad Cities,1212 Iowa Ave,Ames,Iowa,50014,United States,515-292-3683,http://new.arqum.org/index.cfm,info@arqum.org,,,,
Muslim Community Center of Quas Cities,2115 Kimberly Rd,Bettendorf,Iowa,52782,United States,563-359-8123,https://mcqc.org/,info@mcqc.org,,,,
Mother Mosque of North America,1335 Ninth St. Nw,Cedar Rapids,Iowa,52405,United States,319-366-3150,https://www.crmosque.org/,info@crmosque.com,,,,
Muslim American Society of Iowa,2121 North Towne Lane Ne,Cedar Rapids,Iowa,52402,United States,319-892-0256,https://masiowa.org/,info@masiowa.org,,,,
Islamic Society of Clinton County,1500 2nd Ave S,Clinton,Iowa,52732,United States,563-243-8421,https://www.ciciowa.org/,anisansari5@gmail.com,,,,
Tri-State Islamic Center,805 Century Dr Suite 101,Dubuque,Iowa,52002,United States,815-501-4563,https://tristateislamic.center/,info@tristateislamic.center,,,,
Masjid Al-Iman | Al-Iman Center of Iowa,1812 W. Benton St.,Iowa City,Iowa,52246,United States,319-354-6167,https://iowacitymosque.org/index.html,iowacitymosque@yahoo.com,,,,
Mosque of Sious City,1219 Jones St,Sioux City,Iowa,51105,United States,712-234-1670,,,,,,
Islamic Center of Des Moines,6201 Franklin Ave,Urbandale,Iowa,50322,United States,515-255-0212,https://www.islamiccenterdm.com/,icdm.support@gmail.com,,,,
Masjid Al Noor | Islamic Center of Waterloo,2110 Sager Ave,Waterloo,Iowa,50701,United States,319-233-6640,https://masjidalnooriowa.org/,masjidwcf@gmail.com,,,,
Islamic Center of Emporia,1125 Mechanic St.,Emporia,kansas,66801,United States,620-343-9229,https://www.islamiccenteremporia.org/,icek1234ks@yahoo.com,,,,
Az-Zahra Islamic Center,8350 Leavenworth Rd,Kansas City,kansas,66109,United States,913-440-4786,https://www.az-zahraa.org/,,,,,
Islamic Center of Lawrence,1917 Naismith Dr,Lawrence,kansas,66046,United States,785-749-1638,https://iclks.org/,info@islamicsocietylawrence.org,,,,
Islamic Center of Leavenworth,545 Oregon St,Leavenworth,kansas,66048,United States,913-683-0905,http://leavenworthmuslims.weebly.com/,info@leavenworthmuslims.org,,,,
Islamic Center of Manhattan,1224 HHylton Hights,Manhattan,kansas,66502,United States,785-340-5774,https://icmks.org/blog/,info@icmks.org,,,,
Islamic Center of Kansas,14750 W 143rd St,Olathe,kansas,66062,United States,913-390-5055,https://ickansas.org/,info@ickansas.org,,,,
Islamic Center of Johnson Country,9001 W. 151st St,Overland Park,kansas,662211,United States,913-239-0770,https://www.icjc.org/,icjcounty@hotmail.com,,,,
Shawnee Mission Islamic Education Center,13420 Oak St,Shawnee Mission,kansas,66215,United States,913-303-0162,https://smiec.org/,info@smiec.org,,,,
Islamic Center of Topeka,1115 S. E. 27th St,Topeka,kansas,66605,United States,785-233-1171,http://topekamosque.org/,islamiccenteroftopeka@gmail.com,,,,
Masjid Al-Noor | Islamic Society of Wichita,3104 E. 17th St. N,Wichita,kansas,67214,United States,316-516-8939,https://www.myisw.org/,officemanager@myisw.org,,,,
Islamic Society of Wichita Falls,1701 Trigg Lane,Wichita Falls,kansas,67206,United States,,https://www.islamicsocietywf.org/,,,,,
Bosnian Islamic Center of Bowling Green,115 Dishman Lane,Bowling Green,Kentucky,42101,United States,270-799-4852,http://www.bicbg.org/,bicbg@izbsa.com,,,,
Islamic Center of Northern Kentucky,8142 Mall Rd,Burlington,Kentucky,41042,United States,,https://www.icnky.com/,,,,,
Islamic Center of Danville,656 Ben Ali Dr No 308,Danville,Kentucky,40422,United States,606-936-1694,https://www.danvillemasjid.com/,contact@danvillemasjid.com,,,,
Islamic Center of Elizabethtown,2816 Ring Rd,Elizabethtown,Kentucky,41042,United States,270-765-7190,https://sites.google.com/view/etownmasjid,muhammadibrahimsheikh1997@gmail.com,,,,
Islamic Center of Frankfort,741 Schenkel Ln,Frankfort,Kentucky,40601,United States,502-227-8641,https://www.islamiccenterfrankfortky.org/,,,,,
Masjid Bilal Ibn Rabah,1545 Russell Cave Rd,Lexington,Kentucky,40505,United States,770-629-2220,https://masjidbilalibnrabaah.com/,info@masjidbilalibnrabaah.com,,,,
Islamic Center of Lexington,649 S. Limestone St,Lexington,Kentucky,40508,United States,240-317-7299,https://www.iclpmd.org/,iclpmd@gmail.com,,,,
Muslim Community Center of Louisville,8215 Old Westport Rd,Louisville,Kentucky,40222,United States,502-412-7825,https://www.mcclou.org/,mcclouky@gmail.com,,,,
Islamic Cultural Center of Louisville,4007 N Upper River Rd,Louisville,Kentucky,40207,United States,502-442-1718,https://www.louisvilleislamiccenter.org/,mosque.riverroad@gmail.com,,,,
Abubakar Islamic Center of Louisville,1536 S 7th St,Louisville,Kentucky,40214,United States,502-442-1718,http://www.aicl.webs.com/,osmannoor29@yahoo.com,,,,
Al-Zaharah Islamic Education Center,4010 Bishop Lane,Louisville,Kentucky,40218,United States,502-969-2199,https://www.elzahra.org/?page_id=1701,info@elzahra.org,,,,
Bosnian American Islamic Center,5927 Six Mile Ln,Louisville,Kentucky,40218,United States,502-495-5092,https://sites.google.com/view/baic-new/home?authuser=0,baic@dzematlouisville.org,,,,
Masjid Al Farooq | Islamic Center of Eastern Kentucky,8 Masjid Ave,Prestonsburg,Kentucky,41653,United States,606-889-0626,,,,,,
Islamic Center of Richmond,203 Hanover St,Richmond,Kentucky,40475,United States,859-625-0353,https://www.icrva.org/,info@icrva.org,,,,